{
  "type": "FeatureCollection",
  "name": "earthdna_australia_aoi",
  "crs": {
    "type": "name",
    "properties": {
      "name": "EPSG:4326"
    }
  },
  "features": [
    {
      "type": "Feature",
      "properties": {
        "region_id": "australia",
        "study_region": "Southeastern Australia",
        "operational_aoi": "East Gippsland, Victoria",
        "risk_target": "wildfire",
        "geometry_version": "1.0"
      },
      "geometry": {
        "type": "Polygon",
        "coordinates": [
          [
            [147.0, -37.55],
            [147.55, -37.55],
            [147.55, -37.15],
            [147.0, -37.15],
            [147.0, -37.55]
          ]
        ]
      }
    }
  ]
}
