{
  "type": "FeatureCollection",
  "name": "earthdna_california_aoi",
  "crs": {
    "type": "name",
    "properties": {
      "name": "EPSG:4326"
    }
  },
  "features": [
    {
      "type": "Feature",
      "properties": {
        "region_id": "california",
        "study_region": "Southern California, USA",
        "operational_aoi": "San Bernardino Mountains",
        "risk_target": "wildfire",
        "geometry_version": "1.0"
      },
      "geometry": {
        "type": "Polygon",
        "coordinates": [
          [
            [-117.85, 34.1],
            [-117.35, 34.1],
            [-117.35, 34.45],
            [-117.85, 34.45],
            [-117.85, 34.1]
          ]
        ]
      }
    }
  ]
}
