{
  "type": "FeatureCollection",
  "name": "earthdna_uttarakhand_aoi",
  "crs": {
    "type": "name",
    "properties": {
      "name": "EPSG:4326"
    }
  },
  "features": [
    {
      "type": "Feature",
      "properties": {
        "region_id": "uttarakhand",
        "study_region": "Uttarakhand, India",
        "operational_aoi": "Rajaji landscape",
        "risk_target": "wildfire",
        "geometry_version": "1.0"
      },
      "geometry": {
        "type": "Polygon",
        "coordinates": [
          [
            [77.9, 29.95],
            [78.25, 29.95],
            [78.25, 30.25],
            [77.9, 30.25],
            [77.9, 29.95]
          ]
        ]
      }
    }
  ]
}
